{"type": "FeatureCollection", "features": [ {"type": "Feature", "properties": {"norad_id": 41019, "name": "GPS BIIF-11 (PRN 10)", "group": "gnss", "lat": 55.065177186931194, "lon": 107.6574720429391, "alt_km": 20432.87989807275, "timestamp": "2025-12-03T22:42:32.880663+00:00", "meta": {"OBJECT_NAME": "GPS BIIF-11 (PRN 10)", "OBJECT_ID": "2015-062A", "EPOCH": "2025-12-01T20:11:25.978560", "MEAN_MOTION": 2.00566903, "ECCENTRICITY": 0.01105097, "INCLINATION": 56.8244, "RA_OF_ASC_NODE": 38.424, "ARG_OF_PERICENTER": 229.6519, "MEAN_ANOMALY": 129.4268, "EPHEMERIS_TYPE": 0, "CLASSIFICATION_TYPE": "U", "NORAD_CAT_ID": 41019, "ELEMENT_SET_NO": 999, "REV_AT_EPOCH": 7387, "BSTAR": 0, "MEAN_MOTION_DOT": -6.5e-07, "MEAN_MOTION_DDOT": 0}, "tle": {"line1": "1 41019U 15062A   25335.84127290 -.00000065  00000+0  00000+0 0  9990", "line2": "2 41019  56.8244  38.4240 0110509 229.6519 129.4268  2.00566903 73875"}}, "geometry": {"type": "Point", "coordinates": [107.6574720429391, 55.065177186931194]}}, {"type": "Feature", "properties": {"norad_id": 41028, "name": "GSAT-15 (GAGAN/PRN 139)", "group": "gnss", "lat": 0.006754201492349429, "lon": 147.10529006429854, "alt_km": 35785.28657926452, "timestamp": "2025-12-03T22:42:32.880673+00:00", "meta": {"OBJECT_NAME": "GSAT-15 (GAGAN/PRN 139)", "OBJECT_ID": "2015-065A", "EPOCH": "2025-12-03T10:46:37.837920", "MEAN_MOTION": 1.00272014, "ECCENTRICITY": 0.0002986, "INCLINATION": 0.0283, "RA_OF_ASC_NODE": 82.5972, "ARG_OF_PERICENTER": 150.8081, "MEAN_ANOMALY": 94.2882, "EPHEMERIS_TYPE": 0, "CLASSIFICATION_TYPE": "U", "NORAD_CAT_ID": 41028, "ELEMENT_SET_NO": 999, "REV_AT_EPOCH": 3683, "BSTAR": 0, "MEAN_MOTION_DOT": -2.4e-06, "MEAN_MOTION_DDOT": 0}, "tle": {"line1": "1 41028U 15065A   25337.44904905 -.00000240  00000+0  00000+0 0  9992", "line2": "2 41028   0.0283  82.5972 0002986 150.8081  94.2882  1.00272014 36831"}}, "geometry": {"type": "Point", "coordinates": [147.10529006429854, 0.006754201492349429]}}, {"type": "Feature", "properties": {"norad_id": 41174, "name": "GSAT0209 (GALILEO 12)", "group": "gnss", "lat": 26.548753651735566, "lon": -93.32090756453148, "alt_km": 23224.965165027177, "timestamp": "2025-12-03T22:42:32.880726+00:00", "meta": {"OBJECT_NAME": "GSAT0209 (GALILEO 12)", "OBJECT_ID": "2015-079A", "EPOCH": "2025-12-01T22:43:10.411392", "MEAN_MOTION": 1.70474306, "ECCENTRICITY": 0.0002352, "INCLINATION": 55.7062, "RA_OF_ASC_NODE": 106.6773, "ARG_OF_PERICENTER": 357.4206, "MEAN_ANOMALY": 2.5431, "EPHEMERIS_TYPE": 0, "CLASSIFICATION_TYPE": "U", "NORAD_CAT_ID": 41174, "ELEMENT_SET_NO": 999, "REV_AT_EPOCH": 6141, "BSTAR": 0, "MEAN_MOTION_DOT": 3.5e-07, "MEAN_MOTION_DDOT": 0}, "tle": {"line1": "1 41174U 15079A   25335.94664828  .00000035  00000+0  00000+0 0  9990", "line2": "2 41174  55.7062 106.6773 0002352 357.4206   2.5431  1.70474306 61412"}}, "geometry": {"type": "Point", "coordinates": [-93.32090756453148, 26.548753651735566]}}, {"type": "Feature", "properties": {"norad_id": 41175, "name": "GSAT0208 (GALILEO 11)", "group": "gnss", "lat": 9.95819322215483, "lon": 113.4771287921748, "alt_km": 23215.48590168032, "timestamp": "2025-12-03T22:42:32.880737+00:00", "meta": {"OBJECT_NAME": "GSAT0208 (GALILEO 11)", "OBJECT_ID": "2015-079B", "EPOCH": "2025-12-03T08:09:32.137920", "MEAN_MOTION": 1.70474152, "ECCENTRICITY": 0.0001907, "INCLINATION": 55.7055, "RA_OF_ASC_NODE": 106.6362, "ARG_OF_PERICENTER": 9.6551, "MEAN_ANOMALY": 350.3047, "EPHEMERIS_TYPE": 0, "CLASSIFICATION_TYPE": "U", "NORAD_CAT_ID": 41175, "ELEMENT_SET_NO": 999, "REV_AT_EPOCH": 6185, "BSTAR": 0, "MEAN_MOTION_DOT": 2.2e-07, "MEAN_MOTION_DDOT": 0}, "tle": {"line1": "1 41175U 15079B   25337.33995530  .00000022  00000+0  00000+0 0  9999", "line2": "2 41175  55.7055 106.6362 0001907   9.6551 350.3047  1.70474152 61857"}}, "geometry": {"type": "Point", "coordinates": [113.4771287921748, 9.95819322215483]}}, {"type": "Feature", "properties": {"norad_id": 41241, "name": "IRNSS-1E", "group": "gnss", "lat": 31.948975643296016, "lon": 167.446710078074, "alt_km": 35770.65491022536, "timestamp": "2025-12-03T22:42:32.880749+00:00", "meta": {"OBJECT_NAME": "IRNSS-1E", "OBJECT_ID": "2016-003A", "EPOCH": "2025-12-02T15:46:14.293632", "MEAN_MOTION": 1.00278203, "ECCENTRICITY": 0.00219463, "INCLINATION": 32.8036, "RA_OF_ASC_NODE": 62.6001, "ARG_OF_PERICENTER": 186.4596, "MEAN_ANOMALY": 170.9534, "EPHEMERIS_TYPE": 0, "CLASSIFICATION_TYPE": "U", "NORAD_CAT_ID": 41241, "ELEMENT_SET_NO": 999, "REV_AT_EPOCH": 3610, "BSTAR": 0, "MEAN_MOTION_DOT": -3.03e-06, "MEAN_MOTION_DDOT": 0}, "tle": {"line1": "1 41241U 16003A   25336.65710988 -.00000303  00000+0  00000+0 0  9990", "line2": "2 41241  32.8036  62.6001 0021946 186.4596 170.9534  1.00278203 36104"}}, "geometry": {"type": "Point", "coordinates": [167.446710078074, 31.948975643296016]}}, {"type": "Feature", "properties": {"norad_id": 41328, "name": "GPS BIIF-12 (PRN 32)", "group": "gnss", "lat": 16.5494249199211, "lon": 109.01722458264524, "alt_km": 20357.182260275993, "timestamp": "2025-12-03T22:42:32.880759+00:00", "meta": {"OBJECT_NAME": "GPS BIIF-12 (PRN 32)", "OBJECT_ID": "2016-007A", "EPOCH": "2025-12-01T22:09:54.041760", "MEAN_MOTION": 2.0056114, "ECCENTRICITY": 0.00916487, "INCLINATION": 55.3999, "RA_OF_ASC_NODE": 97.2864, "ARG_OF_PERICENTER": 243.3101, "MEAN_ANOMALY": 115.7282, "EPHEMERIS_TYPE": 0, "CLASSIFICATION_TYPE": "U", "NORAD_CAT_ID": 41328, "ELEMENT_SET_NO": 999, "REV_AT_EPOCH": 7188, "BSTAR": 0, "MEAN_MOTION_DOT": 1.1e-07, "MEAN_MOTION_DDOT": 0}, "tle": {"line1": "1 41328U 16007A   25335.92354215  .00000011  00000+0  00000+0 0  9991", "line2": "2 41328  55.3999  97.2864 0091648 243.3101 115.7282  2.00561140 71887"}}, "geometry": {"type": "Point", "coordinates": [109.01722458264524, 16.5494249199211]}}, {"type": "Feature", "properties": {"norad_id": 41330, "name": "COSMOS 2514 (751)", "group": "gnss", "lat": -64.1889450282597, "lon": -146.812457751632, "alt_km": 19113.12999066721, "timestamp": "2025-12-03T22:42:32.880769+00:00", "meta": {"OBJECT_NAME": "COSMOS 2514 (751)", "OBJECT_ID": "2016-008A", "EPOCH": "2025-12-02T04:41:58.161984", "MEAN_MOTION": 2.13102491, "ECCENTRICITY": 0.00124931, "INCLINATION": 65.1398, "RA_OF_ASC_NODE": 319.7653, "ARG_OF_PERICENTER": 219.8518, "MEAN_ANOMALY": 140.0636, "EPHEMERIS_TYPE": 0, "CLASSIFICATION_TYPE": "U", "NORAD_CAT_ID": 41330, "ELEMENT_SET_NO": 999, "REV_AT_EPOCH": 7642, "BSTAR": 0, "MEAN_MOTION_DOT": -3.3e-07, "MEAN_MOTION_DDOT": 0}, "tle": {"line1": "1 41330U 16008A   25336.19581206 -.00000033  00000+0  00000+0 0  9992", "line2": "2 41330  65.1398 319.7653 0012493 219.8518 140.0636  2.13102491 76424"}}, "geometry": {"type": "Point", "coordinates": [-146.812457751632, -64.1889450282597]}}, {"type": "Feature", "properties": {"norad_id": 41384, "name": "IRNSS-1F", "group": "gnss", "lat": -1.2637938836203897, "lon": 86.15562150185842, "alt_km": 35878.89741092425, "timestamp": "2025-12-03T22:42:32.880780+00:00", "meta": {"OBJECT_NAME": "IRNSS-1F", "OBJECT_ID": "2016-015A", "EPOCH": "2025-12-03T01:55:20.988192", "MEAN_MOTION": 1.00267525, "ECCENTRICITY": 0.00224023, "INCLINATION": 4.8561, "RA_OF_ASC_NODE": 101.5395, "ARG_OF_PERICENTER": 179.5147, "MEAN_ANOMALY": 212.3606, "EPHEMERIS_TYPE": 0, "CLASSIFICATION_TYPE": "U", "NORAD_CAT_ID": 41384, "ELEMENT_SET_NO": 999, "REV_AT_EPOCH": 3570, "BSTAR": 0, "MEAN_MOTION_DOT": 1.77e-06, "MEAN_MOTION_DDOT": 0}, "tle": {"line1": "1 41384U 16015A   25337.08010403  .00000177  00000+0  00000+0 0  9992", "line2": "2 41384   4.8561 101.5395 0022402 179.5147 212.3606  1.00267525 35707"}}, "geometry": {"type": "Point", "coordinates": [86.15562150185842, -1.2637938836203897]}}, {"type": "Feature", "properties": {"norad_id": 41434, "name": "BEIDOU-2 IGSO-6 (C13)", "group": "gnss", "lat": 56.7952054597123, "lon": 158.04926403610455, "alt_km": 35931.83505064595, "timestamp": "2025-12-03T22:42:32.880793+00:00", "meta": {"OBJECT_NAME": "BEIDOU-2 IGSO-6 (C13)", "OBJECT_ID": "2016-021A", "EPOCH": "2025-12-01T15:57:35.287200", "MEAN_MOTION": 1.00256562, "ECCENTRICITY": 0.00591323, "INCLINATION": 59.9483, "RA_OF_ASC_NODE": 40.0119, "ARG_OF_PERICENTER": 231.2834, "MEAN_ANOMALY": 130.8807, "EPHEMERIS_TYPE": 0, "CLASSIFICATION_TYPE": "U", "NORAD_CAT_ID": 41434, "ELEMENT_SET_NO": 999, "REV_AT_EPOCH": 3550, "BSTAR": 0, "MEAN_MOTION_DOT": -1.55e-06, "MEAN_MOTION_DDOT": 0}, "tle": {"line1": "1 41434U 16021A   25335.66499175 -.00000155  00000+0  00000+0 0  9991", "line2": "2 41434  59.9483  40.0119 0059132 231.2834 130.8807  1.00256562 35501"}}, "geometry": {"type": "Point", "coordinates": [158.04926403610455, 56.7952054597123]}}, {"type": "Feature", "properties": {"norad_id": 41469, "name": "IRNSS-1G", "group": "gnss", "lat": 4.638791841230198, "lon": -176.9048945409551, "alt_km": 35784.71352423346, "timestamp": "2025-12-03T22:42:32.880819+00:00", "meta": {"OBJECT_NAME": "IRNSS-1G", "OBJECT_ID": "2016-027A", "EPOCH": "2025-12-03T10:37:45.642432", "MEAN_MOTION": 1.00266057, "ECCENTRICITY": 0.0001387, "INCLINATION": 4.7139, "RA_OF_ASC_NODE": 102.328, "ARG_OF_PERICENTER": 15.8146, "MEAN_ANOMALY": 243.3011, "EPHEMERIS_TYPE": 0, "CLASSIFICATION_TYPE": "U", "NORAD_CAT_ID": 41469, "ELEMENT_SET_NO": 999, "REV_AT_EPOCH": 3521, "BSTAR": 0, "MEAN_MOTION_DOT": -3.17e-06, "MEAN_MOTION_DDOT": 0}, "tle": {"line1": "1 41469U 16027A   25337.44288938 -.00000317  00000+0  00000+0 0  9996", "line2": "2 41469   4.7139 102.3280 0001387  15.8146 243.3011  1.00266057 35212"}}, "geometry": {"type": "Point", "coordinates": [-176.9048945409551, 4.638791841230198]}}]}